0 COSMOS 839 DEB *
1 20030U 76067BU  13274.63143397  .00000260  00000-0  93915-3 0  4504
2 20030 065.6679 277.0027 0789547 027.4017 336.6822 12.19151029297999
0 COSMOS 839 DEB *
1 20030U 76067BU  13274.63157566  .00000267  00000-0  11634-2 0  4499
2 20030 065.6671 276.9970 0788559 027.4099 337.3105 12.19152596899369
